ONEWEB-0128             
1 47274U 20100S   24226.46668113  .00000302  00000+0  80324-3 0  9992
2 47274  87.8944 124.6625 0001567  73.7639 286.3661 13.12443714176507
ONEWEB-0129             
1 47275U 20100T   24226.44559291 -.00000375  00000+0 -10765-2 0  9990
2 47275  87.8938 124.6299 0002597 116.7745 243.3649 13.12443179176434
ONEWEB-0130             
1 47276U 20100U   24226.47316936  .00000402  00000+0  10814-2 0  9995
2 47276  87.8935 124.6312 0001749  80.4002 279.7324 13.12444860176407
ONEWEB-0131             
1 47277U 20100V   24226.46992634  .00000280  00000+0  74425-3 0  9993
2 47277  87.8938 124.6482 0001767  75.6245 284.5080 13.12443108176445
ONEWEB-0132             
1 47278U 20100W   24226.42287949 -.00000007  00000+0 -54198-4 0  9991
2 47278  87.8938 124.6598 0001919  69.0308 291.1026 13.12440541176330
ONEWEB-0133             
1 47279U 20100X   24226.43909266 -.00000314  00000+0 -90872-3 0  9995
2 47279  87.8933 124.6515 0001778  74.1138 286.0187 13.12440733176497
ONEWEB-0134             
1 47280U 20100Y   24226.48454319  .00000397  00000+0  10675-2 0  9997
2 47280  87.8930 124.6300 0001611  80.0140 280.1170 13.12443382176471
ONEWEB-0135             
1 47281U 20100Z   24226.45531593 -.00000385  00000+0 -11047-2 0  9998
2 47281  87.8936 124.6553 0001322  77.3405 282.7871 13.12443588176496
